CTC1_L_00225001-01
1 10000U 23679SI  26075.70032407  .00000000  00000+0  00000-0 0  9990
2 10000  70.0000   0.0000 0000000   0.0000   0.0000 13.29142335    14
CTC1_L_00225001-02
1 10001U 23447YD  26075.70032407  .00000000  00000+0  00000-0 0  9994
2 10001  70.0000   0.0000 0000000   0.0000  90.0000 13.29142335    14
CTC1_L_00225001-03
1 10002U 22093FD  26075.70032407  .00000000  00000+0  00000-0 0  9991
2 10002  70.0000   0.0000 0000000   0.0000 180.0000 13.29142335    15
CTC1_L_00225001-04
1 10003U 23485ZR  26075.70032407  .00000000  00000+0  00000-0 0  9998
2 10003  70.0000   0.0000 0000000   0.0000 270.0000 13.29142335    16
CTC1_L_00225002-01
1 10004U 23882NY  26075.70032407  .00000000  00000+0  00000-0 0  9990
2 10004  70.0000  12.0000 0000000   0.0000  12.0000 13.29142335    14
CTC1_L_00225002-02
1 10005U 24478LM  26075.70032407  .00000000  00000+0  00000-0 0  9993
2 10005  70.0000  12.0000 0000000   0.0000 102.0000 13.29142335    15
CTC1_L_00225002-03
1 10006U 24405KK  26075.70032407  .00000000  00000+0  00000-0 0  9994
2 10006  70.0000  12.0000 0000000   0.0000 192.0000 13.29142335    15
CTC1_L_00225002-04
1 10007U 23453ZL  26075.70032407  .00000000  00000+0  00000-0 0  9997
2 10007  70.0000  12.0000 0000000   0.0000 282.0000 13.29142335    16
CTC1_L_00225003-01
1 10008U 23798UL  26075.70032407  .00000000  00000+0  00000-0 0  9990
2 10008  70.0000  24.0000 0000000   0.0000  24.0000 13.29142335    14
CTC1_L_00225003-02
1 10009U 22796WT  26075.70032407  .00000000  00000+0  00000-0 0  9998
2 10009  70.0000  24.0000 0000000   0.0000 114.0000 13.29142335    15
CTC1_L_00225003-03
1 10010U 23306SL  26075.70032407  .00000000  00000+0  00000-0 0  9998
2 10010  70.0000  24.0000 0000000   0.0000 204.0000 13.29142335    17
CTC1_L_00225003-04
1 10011U 26398CL  26075.70032407  .00000000  00000+0  00000-0 0  9993
2 10011  70.0000  24.0000 0000000   0.0000 294.0000 13.29142335    17
CTC1_L_00225004-01
1 10012U 25699JG  26075.70032407  .00000000  00000+0  00000-0 0  9997
2 10012  70.0000  36.0000 0000000   0.0000  36.0000 13.29142335    15
CTC1_L_00225004-02
1 10013U 23998YP  26075.70032407  .00000000  00000+0  00000-0 0  9998
2 10013  70.0000  36.0000 0000000   0.0000 126.0000 13.29142335    16
CTC1_L_00225004-03
1 10014U 26652OE  26075.70032407  .00000000  00000+0  00000-0 0  9999
2 10014  70.0000  36.0000 0000000   0.0000 216.0000 13.29142335    17
CTC1_L_00225004-04
1 10015U 26126YH  26075.70032407  .00000000  00000+0  00000-0 0  9996
2 10015  70.0000  36.0000 0000000   0.0000 306.0000 13.29142335    18
CTC1_L_00225005-01
1 10016U 23131SE  26075.70032407  .00000000  00000+0  00000-0 0  9990
2 10016  70.0000  48.0000 0000000   0.0000  48.0000 13.29142335    15
CTC1_L_00225005-02
1 10017U 26253FW  26075.70032407  .00000000  00000+0  00000-0 0  9999
2 10017  70.0000  48.0000 0000000   0.0000 138.0000 13.29142335    16
CTC1_L_00225005-03
1 10018U 24091TG  26075.70032407  .00000000  00000+0  00000-0 0  9998
2 10018  70.0000  48.0000 0000000   0.0000 228.0000 13.29142335    17
CTC1_L_00225005-04
1 10019U 25470BY  26075.70032407  .00000000  00000+0  00000-0 0  9991
2 10019  70.0000  48.0000 0000000   0.0000 318.0000 13.29142335    18
CTC1_L_00225006-01
1 10020U 22400RY  26075.70032407  .00000000  00000+0  00000-0 0  9993
2 10020  70.0000  60.0000 0000000   0.0000  60.0000 13.29142335    18
CTC1_L_00225006-02
1 10021U 24445DZ  26075.70032407  .00000000  00000+0  00000-0 0  9995
2 10021  70.0000  60.0000 0000000   0.0000 150.0000 13.29142335    19
CTC1_L_00225006-03
1 10022U 26308AL  26075.70032407  .00000000  00000+0  00000-0 0  9996
2 10022  70.0000  60.0000 0000000   0.0000 240.0000 13.29142335    10
CTC1_L_00225006-04
1 10023U 22209VY  26075.70032407  .00000000  00000+0  00000-0 0  9993
2 10023  70.0000  60.0000 0000000   0.0000 330.0000 13.29142335    11
CTC1_L_00225007-01
1 10024U 23968ZC  26075.70032407  .00000000  00000+0  00000-0 0  9997
2 10024  70.0000  72.0000 0000000   0.0000  72.0000 13.29142335    18
CTC1_L_00225007-02
1 10025U 24048YX  26075.70032407  .00000000  00000+0  00000-0 0  9998
2 10025  70.0000  72.0000 0000000   0.0000 162.0000 13.29142335    19
CTC1_L_00225007-03
1 10026U 26702MM  26075.70032407  .00000000  00000+0  00000-0 0  9998
2 10026  70.0000  72.0000 0000000   0.0000 252.0000 13.29142335    10
CTC1_L_00225007-04
1 10027U 22788UD  26075.70032407  .00000000  00000+0  00000-0 0  9999
2 10027  70.0000  72.0000 0000000   0.0000 342.0000 13.29142335    11
CTC1_L_00225008-01
1 10028U 22639YU  26075.70032407  .00000000  00000+0  00000-0 0  9995
2 10028  70.0000  84.0000 0000000   0.0000  84.0000 13.29142335    18
CTC1_L_00225008-02
1 10029U 26730HQ  26075.70032407  .00000000  00000+0  00000-0 0  9992
2 10029  70.0000  84.0000 0000000   0.0000 174.0000 13.29142335    19
CTC1_L_00225008-03
1 10030U 26517GI  26075.70032407  .00000000  00000+0  00000-0 0  9997
2 10030  70.0000  84.0000 0000000   0.0000 264.0000 13.29142335    11
CTC1_L_00225008-04
1 10031U 25003CC  26075.70032407  .00000000  00000+0  00000-0 0  9997
2 10031  70.0000  84.0000 0000000   0.0000 354.0000 13.29142335    12
CTC1_L_00225009-01
1 10032U 24223AM  26075.70032407  .00000000  00000+0  00000-0 0  9991
2 10032  70.0000  96.0000 0000000   0.0000  96.0000 13.29142335    19
CTC1_L_00225009-02
1 10033U 26197PJ  26075.70032407  .00000000  00000+0  00000-0 0  9994
2 10033  70.0000  96.0000 0000000   0.0000 186.0000 13.29142335    10
CTC1_L_00225009-03
1 10034U 23747EO  26075.70032407  .00000000  00000+0  00000-0 0  9993
2 10034  70.0000  96.0000 0000000   0.0000 276.0000 13.29142335    11
CTC1_L_00225009-04
1 10035U 22244T   26075.70032407  .00000000  00000+0  00000-0 0  9995
2 10035  70.0000  96.0000 0000000   0.0000   6.0000 13.29142335    13
CTC1_L_00225010-01
1 10036U 22809UG  26075.70032407  .00000000  00000+0  00000-0 0  9993
2 10036  70.0000 108.0000 0000000   0.0000 108.0000 13.29142335    11
CTC1_L_00225010-02
1 10037U 26460YO  26075.70032407  .00000000  00000+0  00000-0 0  9991
2 10037  70.0000 108.0000 0000000   0.0000 198.0000 13.29142335    11
CTC1_L_00225010-03
1 10038U 26071BA  26075.70032407  .00000000  00000+0  00000-0 0  9990
2 10038  70.0000 108.0000 0000000   0.0000 288.0000 13.29142335    12
CTC1_L_00225010-04
1 10039U 22674UX  26075.70032407  .00000000  00000+0  00000-0 0  9996
2 10039  70.0000 108.0000 0000000   0.0000  18.0000 13.29142335    14
CTC1_L_00225011-01
1 10040U 24179HV  26075.70032407  .00000000  00000+0  00000-0 0  9990
2 10040  70.0000 120.0000 0000000   0.0000 120.0000 13.29142335    14
CTC1_L_00225011-02
1 10041U 22540NW  26075.70032407  .00000000  00000+0  00000-0 0  9991
2 10041  70.0000 120.0000 0000000   0.0000 210.0000 13.29142335    15
CTC1_L_00225011-03
1 10042U 24864FT  26075.70032407  .00000000  00000+0  00000-0 0  9993
2 10042  70.0000 120.0000 0000000   0.0000 300.0000 13.29142335    16
CTC1_L_00225011-04
1 10043U 24459BB  26075.70032407  .00000000  00000+0  00000-0 0  9994
2 10043  70.0000 120.0000 0000000   0.0000  30.0000 13.29142335    17
CTC1_L_00225012-01
1 10044U 23703VX  26075.70032407  .00000000  00000+0  00000-0 0  9996
2 10044  70.0000 132.0000 0000000   0.0000 132.0000 13.29142335    14
CTC1_L_00225012-02
1 10045U 26342ZZ  26075.70032407  .00000000  00000+0  00000-0 0  9999
2 10045  70.0000 132.0000 0000000   0.0000 222.0000 13.29142335    15
CTC1_L_00225012-03
1 10046U 23573SB  26075.70032407  .00000000  00000+0  00000-0 0  9993
2 10046  70.0000 132.0000 0000000   0.0000 312.0000 13.29142335    16
CTC1_L_00225012-04
1 10047U 26618EU  26075.70032407  .00000000  00000+0  00000-0 0  9997
2 10047  70.0000 132.0000 0000000   0.0000  42.0000 13.29142335    17
CTC1_L_00225013-01
1 10048U 23038SD  26075.70032407  .00000000  00000+0  00000-0 0  9991
2 10048  70.0000 144.0000 0000000   0.0000 144.0000 13.29142335    14
CTC1_L_00225013-02
1 10049U 26535HJ  26075.70032407  .00000000  00000+0  00000-0 0  9997
2 10049  70.0000 144.0000 0000000   0.0000 234.0000 13.29142335    15
CTC1_L_00225013-03
1 10050U 24968GY  26075.70032407  .00000000  00000+0  00000-0 0  9997
2 10050  70.0000 144.0000 0000000   0.0000 324.0000 13.29142335    17
CTC1_L_00225013-04
1 10051U 22856TD  26075.70032407  .00000000  00000+0  00000-0 0  9992
2 10051  70.0000 144.0000 0000000   0.0000  54.0000 13.29142335    18
CTC1_L_00225014-01
1 10052U 24131XX  26075.70032407  .00000000  00000+0  00000-0 0  9991
2 10052  70.0000 156.0000 0000000   0.0000 156.0000 13.29142335    15
CTC1_L_00225014-02
1 10053U 23444JZ  26075.70032407  .00000000  00000+0  00000-0 0  9998
2 10053  70.0000 156.0000 0000000   0.0000 246.0000 13.29142335    16
CTC1_L_00225014-03
1 10054U 26903UG  26075.70032407  .00000000  00000+0  00000-0 0  9992
2 10054  70.0000 156.0000 0000000   0.0000 336.0000 13.29142335    17
CTC1_L_00225014-04
1 10055U 24110N   26075.70032407  .00000000  00000+0  00000-0 0  9991
2 10055  70.0000 156.0000 0000000   0.0000  66.0000 13.29142335    18
CTC1_L_00225015-01
1 10056U 24885IU  26075.70032407  .00000000  00000+0  00000-0 0  9991
2 10056  70.0000 168.0000 0000000   0.0000 168.0000 13.29142335    15
CTC1_L_00225015-02
1 10057U 25271DN  26075.70032407  .00000000  00000+0  00000-0 0  9992
2 10057  70.0000 168.0000 0000000   0.0000 258.0000 13.29142335    16
CTC1_L_00225015-03
1 10058U 25741VZ  26075.70032407  .00000000  00000+0  00000-0 0  9995
2 10058  70.0000 168.0000 0000000   0.0000 348.0000 13.29142335    17
CTC1_L_00225015-04
1 10059U 25229CF  26075.70032407  .00000000  00000+0  00000-0 0  9997
2 10059  70.0000 168.0000 0000000   0.0000  78.0000 13.29142335    18
CTC1_L_00225016-01
1 10060U 24455TW  26075.70032407  .00000000  00000+0  00000-0 0  9999
2 10060  70.0000 180.0000 0000000   0.0000 180.0000 13.29142335    18
CTC1_L_00225016-02
1 10061U 25115UX  26075.70032407  .00000000  00000+0  00000-0 0  9994
2 10061  70.0000 180.0000 0000000   0.0000 270.0000 13.29142335    19
